IRIDIUM 36 [-]          
1 24967U 97056C   24045.91911017  .00001059  00000+0  35355-3 0  9997
2 24967  86.3986  18.0077 0002291  90.5926 269.5534 14.36629307382095
IRIDIUM 39 [-]          
1 25042U 97069D   24045.78150505  .00001427  00000+0  38063-3 0  9996
2 25042  86.3872  60.3511 0020008 131.4734 228.8192 14.47687909378261
IRIDIUM 38 [-]          
1 25043U 97069E   24045.82582747  .00000850  00000+0  27969-3 0  9991
2 25043  86.3909  78.5024 0000260  22.9782 337.1427 14.37092545375793
IRIDIUM 42 [-]          
1 25077U 97077A   24045.80274285  .00000830  00000+0  28248-3 0  9999
2 25077  86.3916  84.0905 0001565  91.3915 268.7460 14.35388679371117
IRIDIUM 44 [-]          
1 25078U 97077B   24045.81310198  .00000968  00000+0  30621-3 0  9995
2 25078  86.3907  67.3076 0002589 134.9795 225.1614 14.39205669373434
IRIDIUM 45 [-]          
1 25104U 97082A   24045.90668158  .00018176  00000+0  11045-2 0  9991
2 25104  86.3717 279.9662 0169186 327.6258  31.4677 14.99088810378364
IRIDIUM 24 [-]          
1 25105U 97082B   24045.91417824  .00000921  00000+0  28046-3 0  9994
2 25105  86.3891 287.0834 0009515 247.1074 112.9122 14.40984053372870
IRIDIUM 51 [-]          
1 25262U 98018A   24046.16349724  .00020755  00000+0  10721-2 0  9996
2 25262  86.3941 290.0291 0151608 275.2392  83.1559 15.06650703373089
